{"type":"FeatureCollection","bbox":[4.243766,50.76368,4.482271,50.913905],"license":"Open Database License (ODbL) v1.0","attribution":"© OpenStreetMap contributors","generatedAt":"2026-09-20T12:46:12.453Z","features":[{"type":"Feature","id":"21001","bbox":[4.243766,50.807062,4.340112,50.85032],"properties":{"nis":"21001","name":"Anderlecht","nameNl":"Anderlecht","nameFr":"Anderlecht","nameDe":"Anderlecht","province":"brussels","region":"brussels","areaKm2":17.85},"geometry":{"type":"Polygon","coordinates":[[[4.28461,50.8453],[4.28362,50.8438],[4.28294,50.83785],[4.27772,50.83785],[4.27323,50.83868],[4.2719,50.83621],[4.2681,50.83631],[4.26188,50.83518],[4.25877,50.83599],[4.25469,50.83355],[4.25551,50.82845],[4.25316,50.82515],[4.25084,50.82438],[4.24377,50.81958],[4.24493,50.81773],[4.24978,50.81946],[4.25132,50.81722],[4.25632,50.81741],[4.25911,50.81388],[4.25994,50.81112],[4.27294,50.81216],[4.27491,50.81153],[4.27704,50.80824],[4.28368,50.80706],[4.28641,50.80826],[4.2915,50.8089],[4.29444,50.80826],[4.29736,50.80982],[4.30037,50.81287],[4.30645,50.81244],[4.30835,50.81227],[4.31068,50.81422],[4.30795,50.81716],[4.31084,50.82],[4.31809,50.82232],[4.32107,50.82477],[4.32179,50.82681],[4.3259,50.83055],[4.32927,50.8314],[4.3334,50.83665],[4.33605,50.83894],[4.33995,50.84023],[4.33788,50.84645],[4.33564,50.84815],[4.33193,50.84637],[4.33073,50.84397],[4.31028,50.85032],[4.30398,50.84827],[4.29973,50.84919],[4.29983,50.84738],[4.29427,50.84734],[4.2935,50.84944],[4.29045,50.84906],[4.29303,50.8453],[4.28461,50.8453]]]}},{"type":"Feature","id":"21002","bbox":[4.394191,50.789763,4.482271,50.827037],"properties":{"nis":"21002","name":"Auderghem / Oudergem","nameNl":"Oudergem","nameFr":"Auderghem","nameDe":"Auderghem/Oudergem","province":"brussels","region":"brussels","areaKm2":8.93},"geometry":{"type":"Polygon","coordinates":[[[4.47027,50.78976],[4.48227,50.79299],[4.48061,50.79422],[4.44718,50.8083],[4.45283,50.8085],[4.44781,50.81134],[4.45419,50.81505],[4.45755,50.81632],[4.45465,50.81842],[4.45276,50.82038],[4.44686,50.82263],[4.44303,50.82248],[4.44064,50.82057],[4.43363,50.82508],[4.43029,50.82622],[4.42717,50.8259],[4.41778,50.82162],[4.41457,50.82294],[4.41313,50.82218],[4.40436,50.82704],[4.39934,50.82486],[4.39605,50.82574],[4.40252,50.82132],[4.40267,50.81801],[4.39993,50.81696],[4.39419,50.81726],[4.39804,50.81329],[4.40632,50.81502],[4.40636,50.81239],[4.41241,50.81327],[4.41806,50.81241],[4.41935,50.8106],[4.42239,50.81099],[4.42847,50.81001],[4.42923,50.80389],[4.44352,50.79756],[4.45114,50.79876],[4.45532,50.79197],[4.46184,50.79055],[4.47027,50.78976]]]}},{"type":"Feature","id":"21003","bbox":[4.279194,50.855335,4.314058,50.875289],"properties":{"nis":"21003","name":"Berchem-Sainte-Agathe / Sint-Agatha-Berchem","nameNl":"Sint-Agatha-Berchem","nameFr":"Berchem-Sainte-Agathe","nameDe":"Berchem-Sainte-Agathe/Sint-Agatha-Berchem","province":"brussels","region":"brussels","areaKm2":2.94},"geometry":{"type":"Polygon","coordinates":[[[4.28984,50.85587],[4.29546,50.8554],[4.30409,50.85803],[4.30353,50.86127],[4.30648,50.86213],[4.30704,50.86424],[4.30919,50.86686],[4.31406,50.86714],[4.30876,50.86933],[4.30476,50.86909],[4.2972,50.87221],[4.29153,50.87528],[4.28862,50.87344],[4.28402,50.86885],[4.27926,50.86571],[4.28078,50.86146],[4.28034,50.85991],[4.28401,50.85831],[4.28838,50.85757],[4.28984,50.85587]]]}},{"type":"Feature","id":"21004","bbox":[4.313768,50.796345,4.437066,50.913905],"properties":{"nis":"21004","name":"Bruxelles / Brussel","nameNl":"Brussel","nameFr":"Bruxelles","nameDe":"Brüssel","province":"brussels","region":"brussels","areaKm2":32.97},"geometry":{"type":"Polygon","coordinates":[[[4.36812,50.81487],[4.36975,50.80945],[4.37296,50.80818],[4.37175,50.80665],[4.37394,50.80196],[4.37799,50.80028],[4.37538,50.79974],[4.40081,50.79636],[4.40104,50.79747],[4.3969,50.80176],[4.39378,50.80075],[4.39046,50.80216],[4.38777,50.80507],[4.38704,50.80773],[4.38259,50.81585],[4.37912,50.81384],[4.37362,50.81973],[4.37049,50.82399],[4.36851,50.82446],[4.3647,50.82762],[4.36642,50.82941],[4.36037,50.83151],[4.35631,50.83473],[4.35609,50.83577],[4.3629,50.83868],[4.36757,50.83891],[4.36868,50.84002],[4.37212,50.8393],[4.37282,50.84063],[4.37597,50.8398],[4.37507,50.83805],[4.3768,50.83579],[4.37961,50.83683],[4.38026,50.84001],[4.38583,50.8395],[4.39333,50.83794],[4.39603,50.84341],[4.393,50.84718],[4.38578,50.85147],[4.38405,50.85142],[4.37896,50.84989],[4.37526,50.84763],[4.36957,50.84712],[4.36838,50.85255],[4.35525,50.85621],[4.35719,50.86031],[4.36109,50.8688],[4.36374,50.87126],[4.36521,50.86948],[4.37251,50.87157],[4.3745,50.87527],[4.38307,50.87979],[4.38839,50.88106],[4.38731,50.882],[4.402,50.88593],[4.40734,50.88218],[4.41068,50.87697],[4.41435,50.87826],[4.41765,50.87533],[4.42572,50.87213],[4.42881,50.87629],[4.42735,50.87747],[4.43706,50.87878],[4.42704,50.89089],[4.43279,50.89473],[4.42591,50.89851],[4.42781,50.89996],[4.42296,50.90297],[4.41808,50.90396],[4.41572,50.90613],[4.41248,50.90702],[4.41423,50.91153],[4.40347,50.9139],[4.39907,50.91323],[4.39489,50.91019],[4.38776,50.90994],[4.38618,50.90576],[4.38295,50.9018],[4.37922,50.9008],[4.37822,50.89728],[4.37087,50.89884],[4.36399,50.90115],[4.36046,50.90118],[4.3481,50.90153],[4.34074,50.90232],[4.33092,50.90092],[4.32458,50.89858],[4.32036,50.89556],[4.31377,50.89331],[4.3163,50.89299],[4.32352,50.89412],[4.32764,50.89336],[4.32608,50.89115],[4.3298,50.89055],[4.32748,50.88892],[4.3302,50.88512],[4.33704,50.88697],[4.33929,50.88176],[4.33948,50.87659],[4.33836,50.87639],[4.34052,50.87136],[4.34359,50.86905],[4.34174,50.86496],[4.34839,50.86285],[4.34566,50.85956],[4.34665,50.85903],[4.33852,50.85047],[4.33564,50.84815],[4.33788,50.84645],[4.33995,50.84023],[4.34286,50.83309],[4.34811,50.83279],[4.35517,50.83556],[4.35833,50.83063],[4.36722,50.82299],[4.36644,50.82096],[4.36964,50.81925],[4.37067,50.81527],[4.36812,50.81487]]]}},{"type":"Feature","id":"21005","bbox":[4.378989,50.822471,4.412192,50.844671],"properties":{"nis":"21005","name":"Etterbeek","nameNl":"Etterbeek","nameFr":"Etterbeek","nameDe":"Etterbeek","province":"brussels","region":"brussels","areaKm2":3.16},"geometry":{"type":"Polygon","coordinates":[[[4.40436,50.82704],[4.41219,50.83046],[4.4098,50.8319],[4.40985,50.83373],[4.4051,50.83762],[4.40756,50.83887],[4.40109,50.8406],[4.40005,50.84365],[4.39891,50.84467],[4.39603,50.84341],[4.39333,50.83794],[4.38583,50.8395],[4.38026,50.84001],[4.37961,50.83683],[4.37899,50.83403],[4.38236,50.83291],[4.37998,50.83008],[4.38956,50.82247],[4.39605,50.82574],[4.39934,50.82486],[4.40436,50.82704]]]}},{"type":"Feature","id":"21006","bbox":[4.387311,50.852042,4.426634,50.885935],"properties":{"nis":"21006","name":"Evere","nameNl":"Evere","nameFr":"Evere","nameDe":"Evere","province":"brussels","region":"brussels","areaKm2":5.11},"geometry":{"type":"Polygon","coordinates":[[[4.42572,50.87213],[4.41765,50.87533],[4.41435,50.87826],[4.41068,50.87697],[4.40734,50.88218],[4.402,50.88593],[4.38731,50.882],[4.38839,50.88106],[4.39177,50.87716],[4.39604,50.86862],[4.40004,50.8639],[4.40769,50.85737],[4.4089,50.85767],[4.41303,50.85407],[4.41178,50.85204],[4.422,50.85702],[4.42663,50.86287],[4.42087,50.86771],[4.42572,50.87213]]]}},{"type":"Feature","id":"21007","bbox":[4.302023,50.797512,4.353604,50.830548],"properties":{"nis":"21007","name":"Forest / Vorst","nameNl":"Vorst","nameFr":"Forest","nameDe":"Forest/Vorst","province":"brussels","region":"brussels","areaKm2":6.27},"geometry":{"type":"Polygon","coordinates":[[[4.3118,50.79751],[4.31183,50.79797],[4.3217,50.80067],[4.32498,50.80548],[4.33073,50.80629],[4.33245,50.80795],[4.33553,50.80849],[4.33731,50.8111],[4.33478,50.81297],[4.33775,50.81518],[4.34406,50.81403],[4.34792,50.81429],[4.34729,50.81614],[4.35035,50.81569],[4.35361,50.82058],[4.34455,50.82112],[4.33471,50.82798],[4.3259,50.83055],[4.32179,50.82681],[4.32107,50.82477],[4.31809,50.82232],[4.31084,50.82],[4.30795,50.81716],[4.31068,50.81422],[4.30835,50.81227],[4.30645,50.81244],[4.30205,50.80422],[4.30495,50.79875],[4.3118,50.79751]]]}},{"type":"Feature","id":"21008","bbox":[4.291531,50.86509,4.326145,50.882101],"properties":{"nis":"21008","name":"Ganshoren","nameNl":"Ganshoren","nameFr":"Ganshoren","nameDe":"Ganshoren","province":"brussels","region":"brussels","areaKm2":2.43},"geometry":{"type":"Polygon","coordinates":[[[4.29821,50.8821],[4.29821,50.87898],[4.29153,50.87528],[4.2972,50.87221],[4.30476,50.86909],[4.30876,50.86933],[4.31406,50.86714],[4.32308,50.86605],[4.32522,50.86668],[4.32405,50.86697],[4.32056,50.87217],[4.32337,50.87271],[4.32042,50.87519],[4.3211,50.87773],[4.31966,50.88024],[4.31254,50.88007],[4.30601,50.8814],[4.29821,50.8821]]]}},{"type":"Feature","id":"21009","bbox":[4.347292,50.800753,4.403468,50.84063],"properties":{"nis":"21009","name":"Ixelles / Elsene","nameNl":"Elsene","nameFr":"Ixelles","nameDe":"Ixelles - Elsene","province":"brussels","region":"brussels","areaKm2":6.39},"geometry":{"type":"MultiPolygon","coordinates":[[[[4.36812,50.81487],[4.37067,50.81527],[4.36964,50.81925],[4.36644,50.82096],[4.36722,50.82299],[4.35833,50.83063],[4.357,50.82816],[4.35815,50.82505],[4.3539,50.82252],[4.35361,50.82058],[4.35035,50.81569],[4.34729,50.81614],[4.34792,50.81429],[4.35752,50.81469],[4.35778,50.81642],[4.36352,50.8158],[4.36676,50.81694],[4.36812,50.81487]]],[[[4.39804,50.81329],[4.39419,50.81726],[4.39993,50.81696],[4.40267,50.81801],[4.40252,50.82132],[4.39605,50.82574],[4.38956,50.82247],[4.37998,50.83008],[4.38236,50.83291],[4.37899,50.83403],[4.37961,50.83683],[4.3768,50.83579],[4.37507,50.83805],[4.37597,50.8398],[4.37282,50.84063],[4.37212,50.8393],[4.36868,50.84002],[4.36757,50.83891],[4.3629,50.83868],[4.35609,50.83577],[4.35631,50.83473],[4.36037,50.83151],[4.36642,50.82941],[4.3647,50.82762],[4.36851,50.82446],[4.37049,50.82399],[4.37362,50.81973],[4.37912,50.81384],[4.38259,50.81585],[4.38704,50.80773],[4.38777,50.80507],[4.39046,50.80216],[4.39378,50.80075],[4.3969,50.80176],[4.39638,50.80346],[4.39737,50.80823],[4.39228,50.81208],[4.39804,50.81329]]]]}},{"type":"Feature","id":"21010","bbox":[4.293762,50.864545,4.340523,50.894119],"properties":{"nis":"21010","name":"Jette","nameNl":"Jette","nameFr":"Jette","nameDe":"Jette","province":"brussels","region":"brussels","areaKm2":5.17},"geometry":{"type":"Polygon","coordinates":[[[4.29821,50.8821],[4.30601,50.8814],[4.31254,50.88007],[4.31966,50.88024],[4.3211,50.87773],[4.32042,50.87519],[4.32337,50.87271],[4.32056,50.87217],[4.32405,50.86697],[4.32522,50.86668],[4.32962,50.86759],[4.33237,50.86455],[4.34052,50.87136],[4.33836,50.87639],[4.33948,50.87659],[4.33929,50.88176],[4.33704,50.88697],[4.3302,50.88512],[4.32748,50.88892],[4.3298,50.89055],[4.32608,50.89115],[4.32764,50.89336],[4.32352,50.89412],[4.3163,50.89299],[4.31377,50.89331],[4.30743,50.89099],[4.30094,50.89056],[4.29376,50.88904],[4.29461,50.88613],[4.29705,50.88504],[4.29821,50.8821]]]}},{"type":"Feature","id":"21011","bbox":[4.306922,50.856777,4.337727,50.867586],"properties":{"nis":"21011","name":"Koekelberg","nameNl":"Koekelberg","nameFr":"Koekelberg","nameDe":"Koekelberg","province":"brussels","region":"brussels","areaKm2":1.18},"geometry":{"type":"Polygon","coordinates":[[[4.33237,50.86455],[4.32962,50.86759],[4.32522,50.86668],[4.32308,50.86605],[4.31406,50.86714],[4.30919,50.86686],[4.30704,50.86424],[4.31223,50.86423],[4.31612,50.86123],[4.32221,50.86253],[4.32738,50.86061],[4.32549,50.85695],[4.33277,50.85711],[4.33773,50.85947],[4.33495,50.86109],[4.33237,50.86455]]]}},{"type":"Feature","id":"21012","bbox":[4.283113,50.843972,4.348395,50.871363],"properties":{"nis":"21012","name":"Molenbeek-Saint-Jean / Sint-Jans-Molenbeek","nameNl":"Sint-Jans-Molenbeek","nameFr":"Molenbeek-Saint-Jean","nameDe":"Molenbeek-Saint-Jean - Sint-Jans-Molenbeek","province":"brussels","region":"brussels","areaKm2":5.99},"geometry":{"type":"Polygon","coordinates":[[[4.33564,50.84815],[4.33852,50.85047],[4.34665,50.85903],[4.34566,50.85956],[4.34839,50.86285],[4.34174,50.86496],[4.34359,50.86905],[4.34052,50.87136],[4.33237,50.86455],[4.33495,50.86109],[4.33773,50.85947],[4.33277,50.85711],[4.32549,50.85695],[4.32738,50.86061],[4.32221,50.86253],[4.31612,50.86123],[4.31223,50.86423],[4.30704,50.86424],[4.30648,50.86213],[4.30353,50.86127],[4.30409,50.85803],[4.29546,50.8554],[4.28984,50.85587],[4.28439,50.85438],[4.28332,50.85328],[4.28644,50.85128],[4.28825,50.84827],[4.28421,50.84819],[4.28461,50.8453],[4.29303,50.8453],[4.29045,50.84906],[4.2935,50.84944],[4.29427,50.84734],[4.29983,50.84738],[4.29973,50.84919],[4.30398,50.84827],[4.31028,50.85032],[4.33073,50.84397],[4.33193,50.84637],[4.33564,50.84815]]]}},{"type":"Feature","id":"21013","bbox":[4.325901,50.820536,4.358548,50.840229],"properties":{"nis":"21013","name":"Saint-Gilles / Sint-Gillis","nameNl":"Sint-Gillis","nameFr":"Saint-Gilles","nameDe":"Saint-Gilles/Sint-Gillis","province":"brussels","region":"brussels","areaKm2":2.53},"geometry":{"type":"MultiPolygon","coordinates":[[[[4.35833,50.83063],[4.35517,50.83556],[4.34811,50.83279],[4.34286,50.83309],[4.33995,50.84023],[4.33605,50.83894],[4.3334,50.83665],[4.32927,50.8314],[4.3259,50.83055],[4.33471,50.82798],[4.34455,50.82112],[4.35361,50.82058],[4.3539,50.82252],[4.35815,50.82505],[4.357,50.82816],[4.35833,50.83063]]]]}},{"type":"Feature","id":"21014","bbox":[4.355248,50.84712,4.384052,50.860314],"properties":{"nis":"21014","name":"Saint-Josse-ten-Noode / Sint-Joost-ten-Node","nameNl":"Sint-Joost-ten-Node","nameFr":"Saint-Josse-ten-Noode","nameDe":"Sint-Joost-ten-Node","province":"brussels","region":"brussels","areaKm2":1.16},"geometry":{"type":"Polygon","coordinates":[[[4.35719,50.86031],[4.35525,50.85621],[4.36838,50.85255],[4.36957,50.84712],[4.37526,50.84763],[4.37896,50.84989],[4.38405,50.85142],[4.38223,50.85182],[4.37256,50.85674],[4.35719,50.86031]]]}},{"type":"Feature","id":"21015","bbox":[4.357186,50.843409,4.413027,50.881063],"properties":{"nis":"21015","name":"Schaerbeek / Schaarbeek","nameNl":"Schaarbeek","nameFr":"Schaerbeek","nameDe":"Schaerbeek - Schaarbeek","province":"brussels","region":"brussels","areaKm2":7.87},"geometry":{"type":"Polygon","coordinates":[[[4.38405,50.85142],[4.38578,50.85147],[4.393,50.84718],[4.39603,50.84341],[4.39891,50.84467],[4.40005,50.84365],[4.41084,50.84914],[4.40996,50.8507],[4.41178,50.85204],[4.41303,50.85407],[4.4089,50.85767],[4.40769,50.85737],[4.40004,50.8639],[4.39604,50.86862],[4.39177,50.87716],[4.38839,50.88106],[4.38307,50.87979],[4.3745,50.87527],[4.37251,50.87157],[4.36521,50.86948],[4.36374,50.87126],[4.36109,50.8688],[4.35719,50.86031],[4.37256,50.85674],[4.38223,50.85182],[4.38405,50.85142]]]}},{"type":"Feature","id":"21016","bbox":[4.311798,50.76368,4.412614,50.816937],"properties":{"nis":"21016","name":"Uccle / Ukkel","nameNl":"Ukkel","nameFr":"Uccle","nameDe":"Uccle/Ukkel","province":"brussels","region":"brussels","areaKm2":22.8},"geometry":{"type":"Polygon","coordinates":[[[4.32576,50.7799],[4.3305,50.77691],[4.33125,50.7755],[4.34077,50.7736],[4.34404,50.77539],[4.3468,50.77551],[4.353,50.77351],[4.3629,50.77234],[4.36373,50.77137],[4.3631,50.7733],[4.38105,50.76933],[4.38265,50.76874],[4.38293,50.76368],[4.41262,50.77232],[4.39705,50.7882],[4.39687,50.78925],[4.40377,50.79211],[4.4011,50.79406],[4.40081,50.79636],[4.37538,50.79974],[4.37799,50.80028],[4.37394,50.80196],[4.37175,50.80665],[4.37296,50.80818],[4.36975,50.80945],[4.36812,50.81487],[4.36676,50.81694],[4.36352,50.8158],[4.35778,50.81642],[4.35752,50.81469],[4.34792,50.81429],[4.34406,50.81403],[4.33775,50.81518],[4.33478,50.81297],[4.33731,50.8111],[4.33553,50.80849],[4.33245,50.80795],[4.33073,50.80629],[4.32498,50.80548],[4.3217,50.80067],[4.31183,50.79797],[4.3118,50.79751],[4.3164,50.79635],[4.31877,50.79215],[4.31936,50.78685],[4.32187,50.78317],[4.32576,50.7799]]]}},{"type":"Feature","id":"21017","bbox":[4.392276,50.772324,4.470273,50.815034],"properties":{"nis":"21017","name":"Watermael-Boitsfort / Watermaal-Bosvoorde","nameNl":"Watermaal-Bosvoorde","nameFr":"Watermael-Boitsfort","nameDe":"Watermael-Boitsfort/Watermaal-Bosvoorde","province":"brussels","region":"brussels","areaKm2":12.92},"geometry":{"type":"Polygon","coordinates":[[[4.40081,50.79636],[4.4011,50.79406],[4.40377,50.79211],[4.39687,50.78925],[4.39705,50.7882],[4.41262,50.77232],[4.4168,50.77337],[4.42531,50.7755],[4.43316,50.77813],[4.43459,50.77648],[4.45167,50.7827],[4.46346,50.78792],[4.47027,50.78976],[4.46184,50.79055],[4.45532,50.79197],[4.45114,50.79876],[4.44352,50.79756],[4.42923,50.80389],[4.42847,50.81001],[4.42239,50.81099],[4.41935,50.8106],[4.41806,50.81241],[4.41241,50.81327],[4.40636,50.81239],[4.40632,50.81502],[4.39804,50.81329],[4.39228,50.81208],[4.39737,50.80823],[4.39638,50.80346],[4.3969,50.80176],[4.40104,50.79747],[4.40081,50.79636]]]}},{"type":"Feature","id":"21018","bbox":[4.400052,50.833782,4.461776,50.863036],"properties":{"nis":"21018","name":"Woluwe-Saint-Lambert / Sint-Lambrechts-Woluwe","nameNl":"Sint-Lambrechts-Woluwe","nameFr":"Woluwe-Saint-Lambert","nameDe":"Woluwe-Saint-Lambert/Sint-Lambrechts-Woluwe","province":"brussels","region":"brussels","areaKm2":7.27},"geometry":{"type":"Polygon","coordinates":[[[4.45786,50.85277],[4.45025,50.85358],[4.44596,50.85547],[4.44501,50.85814],[4.43912,50.86045],[4.43737,50.85851],[4.42976,50.86121],[4.43102,50.86249],[4.42663,50.86287],[4.422,50.85702],[4.41178,50.85204],[4.40996,50.8507],[4.41084,50.84914],[4.40005,50.84365],[4.40109,50.8406],[4.40756,50.83887],[4.41082,50.83813],[4.42644,50.83939],[4.434,50.83964],[4.43552,50.83758],[4.43474,50.83478],[4.43925,50.83378],[4.43813,50.8363],[4.44222,50.83833],[4.45479,50.83989],[4.45176,50.84205],[4.44813,50.84289],[4.45064,50.84383],[4.45708,50.84411],[4.45964,50.84544],[4.45737,50.8478],[4.46178,50.84879],[4.46117,50.8519],[4.45786,50.85277]]]}},{"type":"Feature","id":"21019","bbox":[4.404362,50.818423,4.476725,50.848944],"properties":{"nis":"21019","name":"Woluwe-Saint-Pierre / Sint-Pieters-Woluwe","nameNl":"Sint-Pieters-Woluwe","nameFr":"Woluwe-Saint-Pierre","nameDe":"Woluwe-Saint-Pierre/Sint-Pieters-Woluwe","province":"brussels","region":"brussels","areaKm2":8.91},"geometry":{"type":"Polygon","coordinates":[[[4.40756,50.83887],[4.4051,50.83762],[4.40985,50.83373],[4.4098,50.8319],[4.41219,50.83046],[4.40436,50.82704],[4.41313,50.82218],[4.41457,50.82294],[4.41778,50.82162],[4.42717,50.8259],[4.43029,50.82622],[4.43363,50.82508],[4.44064,50.82057],[4.44303,50.82248],[4.44686,50.82263],[4.45276,50.82038],[4.45465,50.81842],[4.47673,50.82041],[4.46574,50.83553],[4.46817,50.83739],[4.46681,50.84015],[4.46707,50.84463],[4.4652,50.84427],[4.46178,50.84879],[4.45737,50.8478],[4.45964,50.84544],[4.45708,50.84411],[4.45064,50.84383],[4.44813,50.84289],[4.45176,50.84205],[4.45479,50.83989],[4.44222,50.83833],[4.43813,50.8363],[4.43925,50.83378],[4.43474,50.83478],[4.43552,50.83758],[4.434,50.83964],[4.42644,50.83939],[4.41082,50.83813],[4.40756,50.83887]]]}}]}