{"type":"FeatureCollection","bbox":[4.243766,50.76368,4.482271,50.913905],"license":"Open Database License (ODbL) v1.0","attribution":"© OpenStreetMap contributors","generatedAt":"2026-09-20T12:46:12.453Z","features":[{"type":"Feature","id":"21001","bbox":[4.243766,50.807062,4.340112,50.85032],"properties":{"nis":"21001","name":"Anderlecht","nameNl":"Anderlecht","nameFr":"Anderlecht","nameDe":"Anderlecht","province":"brussels","region":"brussels","areaKm2":17.85},"geometry":{"type":"Polygon","coordinates":[[[4.28461,50.8453],[4.2847,50.845],[4.28458,50.84402],[4.28436,50.84378],[4.28362,50.8438],[4.28379,50.84194],[4.2833,50.84183],[4.28372,50.84066],[4.28291,50.84057],[4.28302,50.84018],[4.28161,50.84005],[4.28173,50.83953],[4.28275,50.8396],[4.28294,50.83785],[4.2807,50.83787],[4.27965,50.83795],[4.2785,50.83781],[4.27772,50.83785],[4.2765,50.8383],[4.27516,50.83893],[4.27426,50.83859],[4.27323,50.83868],[4.273,50.83801],[4.27186,50.83701],[4.2719,50.83621],[4.26916,50.83635],[4.2681,50.83631],[4.26455,50.83587],[4.26445,50.83553],[4.26356,50.83557],[4.26348,50.83534],[4.26266,50.83544],[4.26188,50.83518],[4.26029,50.8354],[4.25877,50.83599],[4.25839,50.83577],[4.25717,50.83535],[4.25636,50.83493],[4.25469,50.83355],[4.2548,50.83312],[4.25516,50.8329],[4.25455,50.83257],[4.25443,50.83227],[4.25521,50.83143],[4.25567,50.8304],[4.25563,50.82933],[4.25509,50.8293],[4.25505,50.82878],[4.25551,50.82845],[4.25483,50.82702],[4.25431,50.82629],[4.25316,50.82515],[4.25118,50.82422],[4.25084,50.82438],[4.2476,50.82194],[4.24537,50.82051],[4.24377,50.81958],[4.24438,50.81954],[4.24493,50.81773],[4.24682,50.81754],[4.24652,50.81909],[4.24978,50.81946],[4.25096,50.81784],[4.25132,50.81722],[4.25196,50.81728],[4.25375,50.81726],[4.25549,50.81746],[4.25632,50.81741],[4.25771,50.81596],[4.25834,50.81519],[4.25911,50.81388],[4.25994,50.81112],[4.26105,50.81111],[4.26128,50.81123],[4.26217,50.8111],[4.26308,50.81147],[4.26414,50.81153],[4.26568,50.81181],[4.26588,50.81162],[4.26741,50.81156],[4.2681,50.81174],[4.26807,50.81199],[4.27064,50.81214],[4.27148,50.81207],[4.27186,50.81217],[4.27294,50.81216],[4.27491,50.81153],[4.27591,50.81072],[4.27647,50.81004],[4.27626,50.80979],[4.27704,50.80824],[4.27811,50.8083],[4.27892,50.80806],[4.27932,50.8076],[4.28027,50.80751],[4.28101,50.80762],[4.28283,50.80715],[4.28364,50.8073],[4.28368,50.80706],[4.2849,50.80729],[4.28612,50.80794],[4.28641,50.80826],[4.28918,50.80852],[4.28989,50.80875],[4.2915,50.8089],[4.29188,50.8087],[4.29256,50.80863],[4.29309,50.80891],[4.29355,50.80834],[4.29444,50.80826],[4.2948,50.80881],[4.29579,50.80911],[4.29606,50.80945],[4.2959,50.80974],[4.29646,50.80973],[4.29655,50.80998],[4.29736,50.80982],[4.2979,50.81033],[4.29783,50.8108],[4.29832,50.81166],[4.29912,50.81158],[4.29931,50.81171],[4.29912,50.81212],[4.2998,50.8125],[4.30004,50.81297],[4.30037,50.81287],[4.3011,50.81276],[4.3018,50.81288],[4.30186,50.81305],[4.30645,50.81244],[4.30835,50.81227],[4.30848,50.81253],[4.30963,50.81301],[4.31034,50.81365],[4.31068,50.81422],[4.30997,50.81502],[4.31022,50.8154],[4.30811,50.81632],[4.30826,50.81678],[4.30795,50.81716],[4.30884,50.81761],[4.30977,50.81786],[4.31026,50.81814],[4.31077,50.81897],[4.31069,50.81978],[4.31084,50.82],[4.31261,50.82014],[4.31295,50.82026],[4.31326,50.82069],[4.31368,50.82091],[4.31444,50.82102],[4.31809,50.82232],[4.31881,50.82301],[4.31959,50.82393],[4.32039,50.82423],[4.32107,50.82477],[4.32111,50.82528],[4.32157,50.82602],[4.3215,50.8265],[4.32179,50.82681],[4.32354,50.82814],[4.32383,50.82861],[4.325,50.82876],[4.3259,50.83055],[4.32698,50.831],[4.32927,50.8314],[4.3303,50.83202],[4.33057,50.83236],[4.33094,50.8333],[4.33222,50.83433],[4.33224,50.83509],[4.33276,50.83543],[4.3327,50.83589],[4.3334,50.83665],[4.3348,50.83732],[4.33595,50.83821],[4.33605,50.83894],[4.33678,50.83931],[4.33813,50.83977],[4.3388,50.84013],[4.33995,50.84023],[4.34011,50.84025],[4.33906,50.84289],[4.33834,50.84481],[4.33788,50.84645],[4.33601,50.8464],[4.33564,50.84815],[4.33461,50.84807],[4.33372,50.84788],[4.33262,50.84718],[4.33193,50.84637],[4.33142,50.84514],[4.33073,50.84429],[4.33073,50.84397],[4.33003,50.84416],[4.32935,50.84453],[4.32813,50.84404],[4.32725,50.84499],[4.32308,50.84622],[4.31862,50.84758],[4.31597,50.84843],[4.31368,50.84893],[4.31248,50.84969],[4.31028,50.85032],[4.30963,50.8503],[4.30815,50.8498],[4.30804,50.84997],[4.30727,50.84979],[4.30546,50.84907],[4.30471,50.84858],[4.30398,50.84827],[4.30293,50.84815],[4.30261,50.84851],[4.30102,50.84853],[4.30048,50.84895],[4.29973,50.84919],[4.29987,50.84837],[4.29983,50.84738],[4.29681,50.84737],[4.29522,50.8476],[4.2946,50.84754],[4.29427,50.84734],[4.29381,50.84798],[4.2935,50.84944],[4.29243,50.84947],[4.29238,50.84899],[4.29045,50.84906],[4.29161,50.84713],[4.29228,50.84628],[4.29296,50.84629],[4.29303,50.8453],[4.2922,50.84519],[4.29109,50.8452],[4.28859,50.84543],[4.28623,50.84514],[4.28461,50.8453]]]}},{"type":"Feature","id":"21002","bbox":[4.394191,50.789763,4.482271,50.827037],"properties":{"nis":"21002","name":"Auderghem / Oudergem","nameNl":"Oudergem","nameFr":"Auderghem","nameDe":"Auderghem/Oudergem","province":"brussels","region":"brussels","areaKm2":8.93},"geometry":{"type":"Polygon","coordinates":[[[4.47027,50.78976],[4.47611,50.79132],[4.48227,50.79299],[4.48023,50.79392],[4.48061,50.79422],[4.47709,50.79568],[4.47632,50.79603],[4.44718,50.8083],[4.44915,50.80863],[4.45026,50.80868],[4.45136,50.80837],[4.45283,50.8085],[4.45323,50.80872],[4.45452,50.80989],[4.45518,50.81019],[4.45657,50.81004],[4.4576,50.8102],[4.45784,50.81066],[4.45661,50.81053],[4.45512,50.81055],[4.45429,50.81018],[4.45287,50.80909],[4.45194,50.80893],[4.44953,50.80973],[4.4489,50.81018],[4.4484,50.81082],[4.44781,50.81134],[4.45058,50.81314],[4.45175,50.81344],[4.45202,50.81372],[4.45273,50.81403],[4.45348,50.81462],[4.45419,50.81505],[4.45522,50.81516],[4.45677,50.81587],[4.45755,50.81632],[4.4564,50.81711],[4.45521,50.81772],[4.45465,50.81842],[4.45366,50.81945],[4.45336,50.81989],[4.45276,50.82038],[4.45032,50.82127],[4.44935,50.82198],[4.44686,50.82263],[4.44632,50.82266],[4.44303,50.82248],[4.44266,50.82237],[4.44171,50.82125],[4.44064,50.82057],[4.43363,50.82508],[4.43226,50.82512],[4.43224,50.82502],[4.43125,50.82557],[4.43067,50.82611],[4.43029,50.82622],[4.42835,50.82586],[4.42814,50.82625],[4.42717,50.8259],[4.42518,50.82492],[4.42401,50.82425],[4.42263,50.82377],[4.42178,50.82329],[4.4209,50.82302],[4.41943,50.82204],[4.4186,50.82171],[4.41778,50.82162],[4.41457,50.82294],[4.41313,50.82218],[4.41171,50.82256],[4.41139,50.82299],[4.40849,50.82486],[4.40754,50.82552],[4.40589,50.82646],[4.40436,50.82704],[4.39934,50.82486],[4.39704,50.82624],[4.39605,50.82574],[4.40252,50.82132],[4.40304,50.82081],[4.40345,50.81991],[4.40343,50.81926],[4.40316,50.81862],[4.40267,50.81801],[4.40169,50.81743],[4.40079,50.81712],[4.39993,50.81696],[4.39856,50.81694],[4.39713,50.81724],[4.39708,50.81706],[4.39763,50.81644],[4.39711,50.81628],[4.39625,50.81682],[4.39526,50.81773],[4.39419,50.81726],[4.39688,50.81502],[4.39716,50.81446],[4.39765,50.81397],[4.39804,50.81329],[4.39964,50.81395],[4.40094,50.81398],[4.4023,50.81453],[4.40362,50.81485],[4.40632,50.81502],[4.40629,50.81396],[4.40646,50.81308],[4.40636,50.81239],[4.40887,50.81245],[4.4098,50.81258],[4.41241,50.81327],[4.41294,50.81333],[4.41437,50.81322],[4.41485,50.81255],[4.41634,50.81227],[4.41806,50.81241],[4.41812,50.812],[4.41935,50.8106],[4.4213,50.81057],[4.42239,50.81099],[4.42847,50.81001],[4.42865,50.80983],[4.42848,50.8089],[4.42929,50.80793],[4.42886,50.80638],[4.42834,50.80603],[4.42832,50.80517],[4.42946,50.80477],[4.42915,50.80414],[4.42923,50.80389],[4.4321,50.80255],[4.44352,50.79756],[4.44845,50.798],[4.44899,50.79808],[4.45014,50.79851],[4.45114,50.79876],[4.45296,50.79586],[4.45532,50.79197],[4.46184,50.79055],[4.4624,50.7905],[4.46656,50.79046],[4.47027,50.78976]]]}},{"type":"Feature","id":"21003","bbox":[4.279194,50.855335,4.314058,50.875289],"properties":{"nis":"21003","name":"Berchem-Sainte-Agathe / Sint-Agatha-Berchem","nameNl":"Sint-Agatha-Berchem","nameFr":"Berchem-Sainte-Agathe","nameDe":"Berchem-Sainte-Agathe/Sint-Agatha-Berchem","province":"brussels","region":"brussels","areaKm2":2.94},"geometry":{"type":"Polygon","coordinates":[[[4.28984,50.85587],[4.29017,50.85533],[4.29337,50.85592],[4.29359,50.85543],[4.29546,50.8554],[4.29668,50.85587],[4.29796,50.8565],[4.29943,50.85706],[4.30409,50.85803],[4.30397,50.85834],[4.3042,50.85857],[4.30337,50.85985],[4.30253,50.85966],[4.30217,50.86021],[4.30309,50.86057],[4.30359,50.86059],[4.30379,50.86037],[4.30467,50.86055],[4.30526,50.86032],[4.30402,50.86112],[4.30353,50.86127],[4.30448,50.86149],[4.30438,50.86168],[4.30648,50.86213],[4.30652,50.86226],[4.30592,50.86419],[4.30704,50.86424],[4.30696,50.86491],[4.30733,50.86568],[4.30836,50.86621],[4.30919,50.86686],[4.31406,50.86714],[4.31401,50.86746],[4.31258,50.86791],[4.31033,50.86876],[4.31008,50.86914],[4.30876,50.86933],[4.30742,50.86926],[4.30634,50.86931],[4.30476,50.86909],[4.30378,50.86935],[4.30181,50.87014],[4.29858,50.87172],[4.2972,50.87221],[4.29598,50.87312],[4.29315,50.87456],[4.29153,50.87528],[4.29203,50.87497],[4.29158,50.87442],[4.28972,50.87374],[4.28862,50.87344],[4.28662,50.87203],[4.28586,50.8714],[4.28591,50.87117],[4.28548,50.87081],[4.2855,50.87022],[4.28449,50.86945],[4.28402,50.86885],[4.28363,50.8687],[4.28265,50.86802],[4.28212,50.86778],[4.28117,50.86705],[4.28051,50.8672],[4.28006,50.86682],[4.27926,50.86571],[4.27963,50.86516],[4.27922,50.86485],[4.2793,50.86435],[4.28042,50.86207],[4.28033,50.86149],[4.28078,50.86146],[4.28051,50.86011],[4.28034,50.85991],[4.28233,50.8592],[4.28265,50.85969],[4.28389,50.85925],[4.28345,50.8588],[4.28424,50.8585],[4.28401,50.85831],[4.28697,50.85747],[4.28704,50.8576],[4.28753,50.85691],[4.28838,50.85757],[4.28936,50.85662],[4.28984,50.85587]]]}},{"type":"Feature","id":"21004","bbox":[4.313768,50.796345,4.437066,50.913905],"properties":{"nis":"21004","name":"Bruxelles / Brussel","nameNl":"Brussel","nameFr":"Bruxelles","nameDe":"Brüssel","province":"brussels","region":"brussels","areaKm2":32.97},"geometry":{"type":"Polygon","coordinates":[[[4.36812,50.81487],[4.36828,50.81399],[4.36784,50.8139],[4.36914,50.81055],[4.36975,50.80945],[4.37062,50.80911],[4.37118,50.80875],[4.37242,50.80848],[4.37296,50.80818],[4.37273,50.8078],[4.37298,50.80757],[4.37277,50.80671],[4.37175,50.80665],[4.37223,50.80552],[4.37241,50.80425],[4.37284,50.8031],[4.37336,50.80321],[4.37357,50.80269],[4.37323,50.80264],[4.37394,50.80196],[4.3756,50.80124],[4.37581,50.80099],[4.37679,50.80091],[4.37785,50.8011],[4.37799,50.80028],[4.37729,50.80001],[4.37538,50.79974],[4.38303,50.79872],[4.40081,50.79636],[4.40091,50.79635],[4.40104,50.79747],[4.39986,50.79888],[4.39888,50.79986],[4.39771,50.8009],[4.39724,50.80121],[4.3969,50.80176],[4.39378,50.80075],[4.39046,50.80216],[4.38777,50.80507],[4.38735,50.80581],[4.38704,50.80773],[4.38666,50.80864],[4.38563,50.81013],[4.38529,50.81083],[4.38506,50.81179],[4.3839,50.81344],[4.38362,50.81448],[4.38324,50.8152],[4.38259,50.81585],[4.37912,50.81384],[4.37724,50.81606],[4.37362,50.81973],[4.37081,50.82351],[4.37049,50.82399],[4.36949,50.8241],[4.36851,50.82446],[4.36875,50.82473],[4.36711,50.82531],[4.36754,50.82559],[4.36687,50.826],[4.36679,50.82624],[4.3647,50.82762],[4.36551,50.82855],[4.36516,50.82893],[4.36642,50.82941],[4.36547,50.83041],[4.36441,50.83002],[4.36407,50.83023],[4.36328,50.83017],[4.36037,50.83151],[4.36066,50.83171],[4.3597,50.83222],[4.35994,50.8324],[4.35879,50.83353],[4.35735,50.83372],[4.35631,50.83473],[4.3554,50.83566],[4.35596,50.83589],[4.35609,50.83577],[4.35871,50.8369],[4.36159,50.83821],[4.36165,50.83815],[4.3629,50.83868],[4.36595,50.83874],[4.36709,50.83931],[4.36757,50.83891],[4.36831,50.8393],[4.36868,50.84002],[4.37212,50.8393],[4.37282,50.84063],[4.37504,50.84016],[4.37597,50.8398],[4.37507,50.83805],[4.37623,50.83732],[4.37581,50.83608],[4.37458,50.83597],[4.3746,50.83588],[4.37587,50.83576],[4.3768,50.83579],[4.37675,50.83593],[4.37758,50.83606],[4.37751,50.8362],[4.37858,50.83635],[4.37961,50.83683],[4.38024,50.83726],[4.38066,50.83791],[4.38076,50.83911],[4.38026,50.84001],[4.38578,50.83943],[4.38583,50.8395],[4.39333,50.83794],[4.39609,50.84325],[4.39603,50.84341],[4.39564,50.8443],[4.39511,50.84509],[4.39368,50.8466],[4.393,50.84718],[4.39113,50.8482],[4.38954,50.84922],[4.38578,50.85147],[4.38512,50.8517],[4.38405,50.85142],[4.38099,50.8506],[4.3796,50.85002],[4.37896,50.84989],[4.37898,50.84903],[4.37759,50.84876],[4.37737,50.84903],[4.37571,50.84847],[4.37526,50.84763],[4.37388,50.84791],[4.37322,50.84729],[4.36957,50.84712],[4.36972,50.84742],[4.36838,50.85255],[4.36541,50.85336],[4.36065,50.85472],[4.35525,50.85621],[4.35587,50.85704],[4.35658,50.8577],[4.35668,50.85935],[4.35719,50.86031],[4.35826,50.86253],[4.3588,50.86378],[4.36109,50.8688],[4.36312,50.87055],[4.36374,50.87126],[4.36449,50.871],[4.36459,50.87112],[4.36524,50.87089],[4.3649,50.8705],[4.36521,50.86948],[4.36691,50.86959],[4.36811,50.87053],[4.36911,50.87101],[4.37093,50.87149],[4.37251,50.87157],[4.3745,50.87527],[4.37483,50.8755],[4.3794,50.87791],[4.37951,50.87783],[4.38148,50.87899],[4.38307,50.87979],[4.38428,50.88014],[4.38839,50.88106],[4.38731,50.882],[4.402,50.88593],[4.4031,50.88526],[4.40332,50.88502],[4.40525,50.88394],[4.40643,50.88285],[4.40734,50.88218],[4.40815,50.88116],[4.40867,50.88036],[4.40889,50.87922],[4.40993,50.8781],[4.41068,50.87697],[4.41435,50.87826],[4.41765,50.87533],[4.41861,50.87527],[4.42036,50.87451],[4.42154,50.87368],[4.42221,50.87336],[4.42442,50.87271],[4.42572,50.87213],[4.4276,50.87504],[4.42881,50.87629],[4.42724,50.87698],[4.42735,50.87747],[4.43365,50.87837],[4.43706,50.87878],[4.43643,50.87953],[4.43553,50.88043],[4.43404,50.88206],[4.43177,50.88479],[4.43146,50.88534],[4.43052,50.88625],[4.42991,50.88706],[4.42833,50.88844],[4.42751,50.88926],[4.42721,50.88986],[4.42704,50.89089],[4.42795,50.89176],[4.42932,50.89288],[4.43108,50.89338],[4.43196,50.89385],[4.43184,50.89393],[4.43279,50.89473],[4.43123,50.89526],[4.43137,50.89566],[4.4296,50.89685],[4.42844,50.89742],[4.42737,50.89761],[4.42676,50.89782],[4.42591,50.89851],[4.42615,50.89861],[4.42699,50.89951],[4.42779,50.8998],[4.42781,50.89996],[4.42647,50.90048],[4.4261,50.901],[4.42551,50.90113],[4.42499,50.90143],[4.42476,50.90175],[4.42296,50.90297],[4.4224,50.90261],[4.42212,50.90317],[4.42111,50.9032],[4.42063,50.90357],[4.41808,50.90396],[4.41749,50.90458],[4.41792,50.90542],[4.41572,50.90613],[4.41444,50.90649],[4.41301,50.90667],[4.41248,50.90702],[4.41253,50.90751],[4.41239,50.90842],[4.41272,50.90897],[4.41321,50.90911],[4.41374,50.90952],[4.41376,50.9104],[4.41441,50.91125],[4.41423,50.91153],[4.40982,50.91254],[4.40634,50.91309],[4.40347,50.9139],[4.40304,50.91304],[4.40185,50.91334],[4.40092,50.91336],[4.39907,50.91323],[4.39892,50.91214],[4.39769,50.91206],[4.3972,50.91186],[4.39489,50.91019],[4.3946,50.91037],[4.39291,50.90996],[4.39151,50.91004],[4.39,50.90998],[4.38926,50.91036],[4.389,50.91],[4.38852,50.91027],[4.38776,50.90994],[4.3872,50.90807],[4.38704,50.90724],[4.38618,50.90576],[4.38295,50.9018],[4.37922,50.9008],[4.37913,50.90046],[4.37797,50.8994],[4.3783,50.89854],[4.3781,50.89849],[4.37833,50.89785],[4.37822,50.89728],[4.37739,50.89699],[4.37704,50.89731],[4.37551,50.89796],[4.37342,50.89842],[4.37087,50.89884],[4.36399,50.90115],[4.3625,50.90107],[4.36046,50.90118],[4.35731,50.90137],[4.3533,50.90127],[4.35172,50.90131],[4.3481,50.90153],[4.34704,50.90174],[4.34482,50.90228],[4.34286,50.90242],[4.34074,50.90232],[4.33366,50.90147],[4.33272,50.90133],[4.33092,50.90092],[4.32955,50.90048],[4.32745,50.89965],[4.32458,50.89858],[4.32369,50.89819],[4.32256,50.89747],[4.32036,50.89556],[4.31938,50.89499],[4.31814,50.89454],[4.31461,50.89361],[4.31377,50.89331],[4.31422,50.89317],[4.3163,50.89299],[4.31776,50.89316],[4.32229,50.89402],[4.32352,50.89412],[4.32448,50.89407],[4.32683,50.89381],[4.32764,50.89336],[4.32608,50.89115],[4.3298,50.89055],[4.32994,50.89011],[4.32757,50.88912],[4.32748,50.88892],[4.32989,50.88532],[4.3302,50.88512],[4.33136,50.8854],[4.33229,50.88571],[4.3324,50.88559],[4.33382,50.88617],[4.33469,50.88679],[4.33704,50.88697],[4.33768,50.88489],[4.33833,50.88483],[4.33827,50.88455],[4.33782,50.88434],[4.33929,50.88176],[4.33948,50.87659],[4.33836,50.87639],[4.33881,50.87546],[4.33978,50.87312],[4.34023,50.8715],[4.34052,50.87136],[4.34173,50.87083],[4.34359,50.86905],[4.3431,50.86842],[4.34361,50.86778],[4.34354,50.8674],[4.34169,50.86508],[4.34174,50.86496],[4.34562,50.86371],[4.34839,50.86285],[4.34711,50.86104],[4.34566,50.85956],[4.34665,50.85903],[4.34141,50.85354],[4.33852,50.85047],[4.33742,50.8485],[4.33547,50.84892],[4.33564,50.84815],[4.33601,50.8464],[4.33788,50.84645],[4.33834,50.84481],[4.33906,50.84289],[4.34011,50.84025],[4.33995,50.84023],[4.3403,50.84016],[4.34286,50.83309],[4.343,50.83297],[4.34497,50.83261],[4.34586,50.83271],[4.34811,50.83279],[4.34867,50.83289],[4.35004,50.83341],[4.35517,50.83556],[4.35719,50.83365],[4.35693,50.83284],[4.3576,50.83266],[4.35767,50.83222],[4.35833,50.83188],[4.35791,50.83103],[4.35833,50.83063],[4.36224,50.82683],[4.36171,50.82653],[4.3621,50.82625],[4.36263,50.82646],[4.36332,50.82599],[4.36341,50.82544],[4.36456,50.82497],[4.36495,50.82451],[4.36433,50.82412],[4.36559,50.82348],[4.36501,50.82315],[4.36722,50.82299],[4.36689,50.82257],[4.36644,50.82096],[4.36964,50.81925],[4.37029,50.81718],[4.37067,50.81527],[4.36812,50.81487]]]}},{"type":"Feature","id":"21005","bbox":[4.378989,50.822471,4.412192,50.844671],"properties":{"nis":"21005","name":"Etterbeek","nameNl":"Etterbeek","nameFr":"Etterbeek","nameDe":"Etterbeek","province":"brussels","region":"brussels","areaKm2":3.16},"geometry":{"type":"Polygon","coordinates":[[[4.40436,50.82704],[4.41219,50.83046],[4.41136,50.83044],[4.41082,50.83059],[4.41032,50.83101],[4.4098,50.8319],[4.40973,50.83245],[4.40985,50.83373],[4.40931,50.83438],[4.40716,50.83591],[4.4051,50.83762],[4.40595,50.83806],[4.40612,50.83839],[4.40756,50.83887],[4.40596,50.83908],[4.40556,50.83884],[4.40435,50.83963],[4.40253,50.84031],[4.40109,50.8406],[4.40147,50.84134],[4.40111,50.8423],[4.40061,50.84311],[4.40005,50.84365],[4.39891,50.84467],[4.39603,50.84341],[4.39609,50.84325],[4.39333,50.83794],[4.38583,50.8395],[4.38578,50.83943],[4.38026,50.84001],[4.38076,50.83911],[4.38066,50.83791],[4.38024,50.83726],[4.37961,50.83683],[4.37917,50.83614],[4.37958,50.83557],[4.37929,50.83488],[4.37924,50.83432],[4.37899,50.83403],[4.38236,50.83291],[4.38037,50.83043],[4.37998,50.83008],[4.38108,50.82906],[4.38197,50.82839],[4.3825,50.82812],[4.38308,50.82756],[4.38452,50.82666],[4.3863,50.82541],[4.38781,50.82417],[4.38956,50.82247],[4.39605,50.82574],[4.39704,50.82624],[4.39934,50.82486],[4.40436,50.82704]]]}},{"type":"Feature","id":"21006","bbox":[4.387311,50.852042,4.426634,50.885935],"properties":{"nis":"21006","name":"Evere","nameNl":"Evere","nameFr":"Evere","nameDe":"Evere","province":"brussels","region":"brussels","areaKm2":5.11},"geometry":{"type":"Polygon","coordinates":[[[4.42572,50.87213],[4.42442,50.87271],[4.42221,50.87336],[4.42154,50.87368],[4.42036,50.87451],[4.41861,50.87527],[4.41765,50.87533],[4.41435,50.87826],[4.41068,50.87697],[4.40993,50.8781],[4.40889,50.87922],[4.40867,50.88036],[4.40815,50.88116],[4.40734,50.88218],[4.40643,50.88285],[4.40525,50.88394],[4.40332,50.88502],[4.4031,50.88526],[4.402,50.88593],[4.38731,50.882],[4.38839,50.88106],[4.38895,50.88058],[4.38894,50.88038],[4.39036,50.87866],[4.39054,50.87858],[4.39177,50.87716],[4.39273,50.8758],[4.39311,50.8748],[4.39407,50.87314],[4.395,50.87126],[4.39604,50.86862],[4.39689,50.86739],[4.39878,50.86534],[4.40004,50.8639],[4.40297,50.86121],[4.40424,50.86034],[4.40407,50.86002],[4.40472,50.8598],[4.40639,50.85857],[4.40769,50.85737],[4.4089,50.85767],[4.41246,50.85459],[4.41303,50.85407],[4.4107,50.85307],[4.41178,50.85204],[4.41584,50.85423],[4.422,50.85702],[4.42406,50.86013],[4.42663,50.86287],[4.4254,50.86386],[4.42227,50.86662],[4.42173,50.86678],[4.42087,50.86771],[4.42166,50.8683],[4.42482,50.87115],[4.42588,50.87206],[4.42572,50.87213]]]}},{"type":"Feature","id":"21007","bbox":[4.302023,50.797512,4.353604,50.830548],"properties":{"nis":"21007","name":"Forest / Vorst","nameNl":"Vorst","nameFr":"Forest","nameDe":"Forest/Vorst","province":"brussels","region":"brussels","areaKm2":6.27},"geometry":{"type":"Polygon","coordinates":[[[4.3118,50.79751],[4.31183,50.79797],[4.31319,50.79853],[4.31496,50.79906],[4.31585,50.79922],[4.31715,50.79986],[4.31809,50.79983],[4.31881,50.79993],[4.3194,50.80016],[4.3217,50.80067],[4.3236,50.80313],[4.32432,50.8038],[4.32472,50.80452],[4.32498,50.80548],[4.32728,50.80568],[4.32792,50.80566],[4.32825,50.80666],[4.32928,50.80636],[4.33073,50.80629],[4.3321,50.80752],[4.33245,50.80795],[4.33553,50.80849],[4.33518,50.80954],[4.33562,50.80964],[4.33656,50.80954],[4.33731,50.8111],[4.33605,50.81179],[4.33508,50.81261],[4.33478,50.81297],[4.33587,50.81321],[4.33655,50.81374],[4.33732,50.81395],[4.33775,50.81518],[4.33938,50.81496],[4.33965,50.81506],[4.3407,50.81496],[4.34081,50.81511],[4.34291,50.81466],[4.34304,50.81429],[4.34406,50.81403],[4.34611,50.81421],[4.34792,50.81429],[4.34782,50.81475],[4.34729,50.81614],[4.34919,50.81591],[4.35035,50.81569],[4.35057,50.81648],[4.35087,50.81642],[4.35105,50.81736],[4.35125,50.81731],[4.3522,50.81868],[4.35231,50.81901],[4.35309,50.82024],[4.35335,50.82017],[4.35361,50.82058],[4.35248,50.82057],[4.34801,50.82084],[4.3453,50.82159],[4.34455,50.82112],[4.34146,50.82264],[4.34121,50.82303],[4.33972,50.82461],[4.33929,50.82498],[4.33727,50.82621],[4.33713,50.82616],[4.33581,50.82694],[4.33471,50.82798],[4.32934,50.82982],[4.3259,50.83055],[4.325,50.82876],[4.32383,50.82861],[4.32354,50.82814],[4.32179,50.82681],[4.3215,50.8265],[4.32157,50.82602],[4.32111,50.82528],[4.32107,50.82477],[4.32039,50.82423],[4.31959,50.82393],[4.31881,50.82301],[4.31809,50.82232],[4.31444,50.82102],[4.31368,50.82091],[4.31326,50.82069],[4.31295,50.82026],[4.31261,50.82014],[4.31084,50.82],[4.31069,50.81978],[4.31077,50.81897],[4.31026,50.81814],[4.30977,50.81786],[4.30884,50.81761],[4.30795,50.81716],[4.30826,50.81678],[4.30811,50.81632],[4.31022,50.8154],[4.30997,50.81502],[4.31068,50.81422],[4.31034,50.81365],[4.30963,50.81301],[4.30848,50.81253],[4.30835,50.81227],[4.30645,50.81244],[4.30576,50.81126],[4.30561,50.81076],[4.30573,50.81045],[4.3055,50.80932],[4.30531,50.80918],[4.30434,50.80906],[4.304,50.80826],[4.30331,50.80717],[4.30304,50.80535],[4.30205,50.80422],[4.30221,50.80337],[4.303,50.80237],[4.30337,50.80216],[4.30422,50.80058],[4.30419,50.79999],[4.30451,50.79931],[4.30495,50.79875],[4.30543,50.79862],[4.31072,50.79793],[4.31079,50.79767],[4.3118,50.79751]]]}},{"type":"Feature","id":"21008","bbox":[4.291531,50.86509,4.326145,50.882101],"properties":{"nis":"21008","name":"Ganshoren","nameNl":"Ganshoren","nameFr":"Ganshoren","nameDe":"Ganshoren","province":"brussels","region":"brussels","areaKm2":2.43},"geometry":{"type":"Polygon","coordinates":[[[4.29821,50.8821],[4.2989,50.87993],[4.29821,50.87898],[4.29715,50.87836],[4.29598,50.87785],[4.29569,50.87764],[4.29429,50.87713],[4.29458,50.87683],[4.29376,50.87643],[4.2937,50.8762],[4.29305,50.87573],[4.29217,50.87554],[4.29153,50.87528],[4.29315,50.87456],[4.29598,50.87312],[4.2972,50.87221],[4.29858,50.87172],[4.30181,50.87014],[4.30378,50.86935],[4.30476,50.86909],[4.30634,50.86931],[4.30742,50.86926],[4.30876,50.86933],[4.31008,50.86914],[4.31033,50.86876],[4.31258,50.86791],[4.31401,50.86746],[4.31406,50.86714],[4.31602,50.86718],[4.31723,50.86707],[4.31977,50.86668],[4.32252,50.86619],[4.32308,50.86605],[4.32482,50.86509],[4.32614,50.86566],[4.32513,50.86664],[4.32522,50.86668],[4.32485,50.86712],[4.32405,50.86697],[4.32056,50.87217],[4.32337,50.87271],[4.32255,50.87394],[4.32205,50.87438],[4.32042,50.87519],[4.32073,50.87705],[4.3211,50.87773],[4.31934,50.87847],[4.31972,50.8799],[4.31966,50.88024],[4.31593,50.87996],[4.31452,50.87992],[4.31254,50.88007],[4.30944,50.88078],[4.30601,50.8814],[4.29821,50.8821]]]}},{"type":"Feature","id":"21009","bbox":[4.347292,50.800753,4.403468,50.84063],"properties":{"nis":"21009","name":"Ixelles / Elsene","nameNl":"Elsene","nameFr":"Ixelles","nameDe":"Ixelles - Elsene","province":"brussels","region":"brussels","areaKm2":6.39},"geometry":{"type":"MultiPolygon","coordinates":[[[[4.36812,50.81487],[4.37067,50.81527],[4.37029,50.81718],[4.36964,50.81925],[4.36644,50.82096],[4.36689,50.82257],[4.36722,50.82299],[4.36501,50.82315],[4.36559,50.82348],[4.36433,50.82412],[4.36495,50.82451],[4.36456,50.82497],[4.36341,50.82544],[4.36332,50.82599],[4.36263,50.82646],[4.3621,50.82625],[4.36171,50.82653],[4.36224,50.82683],[4.35833,50.83063],[4.35812,50.83037],[4.35844,50.83024],[4.35768,50.82928],[4.35714,50.82887],[4.3576,50.82861],[4.357,50.82816],[4.35855,50.82727],[4.35843,50.82595],[4.35829,50.8256],[4.35845,50.82494],[4.35815,50.82505],[4.35701,50.82445],[4.35723,50.8243],[4.35589,50.82387],[4.3539,50.82252],[4.35383,50.8215],[4.35361,50.82058],[4.35335,50.82017],[4.35309,50.82024],[4.35231,50.81901],[4.3522,50.81868],[4.35125,50.81731],[4.35105,50.81736],[4.35087,50.81642],[4.35057,50.81648],[4.35035,50.81569],[4.34919,50.81591],[4.34729,50.81614],[4.34782,50.81475],[4.34792,50.81429],[4.35752,50.81469],[4.35732,50.81543],[4.35797,50.81576],[4.35778,50.81642],[4.35942,50.81665],[4.35947,50.8165],[4.36053,50.81667],[4.36179,50.81622],[4.36237,50.81634],[4.36261,50.81579],[4.36352,50.8158],[4.36651,50.8167],[4.36676,50.81694],[4.36729,50.81652],[4.36807,50.81622],[4.36814,50.81605],[4.36755,50.81594],[4.36812,50.81487]]],[[[4.39804,50.81329],[4.39765,50.81397],[4.39716,50.81446],[4.39688,50.81502],[4.39419,50.81726],[4.39526,50.81773],[4.39625,50.81682],[4.39711,50.81628],[4.39763,50.81644],[4.39708,50.81706],[4.39713,50.81724],[4.39856,50.81694],[4.39993,50.81696],[4.40079,50.81712],[4.40169,50.81743],[4.40267,50.81801],[4.40316,50.81862],[4.40343,50.81926],[4.40345,50.81991],[4.40304,50.82081],[4.40252,50.82132],[4.39605,50.82574],[4.38956,50.82247],[4.38781,50.82417],[4.3863,50.82541],[4.38452,50.82666],[4.38308,50.82756],[4.3825,50.82812],[4.38197,50.82839],[4.38108,50.82906],[4.37998,50.83008],[4.38037,50.83043],[4.38236,50.83291],[4.37899,50.83403],[4.37924,50.83432],[4.37929,50.83488],[4.37958,50.83557],[4.37917,50.83614],[4.37961,50.83683],[4.37858,50.83635],[4.37751,50.8362],[4.37758,50.83606],[4.37675,50.83593],[4.3768,50.83579],[4.37587,50.83576],[4.3746,50.83588],[4.37458,50.83597],[4.37581,50.83608],[4.37623,50.83732],[4.37507,50.83805],[4.37597,50.8398],[4.37504,50.84016],[4.37282,50.84063],[4.37212,50.8393],[4.36868,50.84002],[4.36831,50.8393],[4.36757,50.83891],[4.36709,50.83931],[4.36595,50.83874],[4.3629,50.83868],[4.36165,50.83815],[4.36159,50.83821],[4.35871,50.8369],[4.35609,50.83577],[4.35686,50.83497],[4.35631,50.83473],[4.35735,50.83372],[4.35879,50.83353],[4.35994,50.8324],[4.3597,50.83222],[4.36066,50.83171],[4.36037,50.83151],[4.36328,50.83017],[4.36407,50.83023],[4.36441,50.83002],[4.36547,50.83041],[4.36642,50.82941],[4.36516,50.82893],[4.36551,50.82855],[4.3647,50.82762],[4.36679,50.82624],[4.36687,50.826],[4.36754,50.82559],[4.36711,50.82531],[4.36875,50.82473],[4.36851,50.82446],[4.36949,50.8241],[4.37049,50.82399],[4.37081,50.82351],[4.37362,50.81973],[4.37724,50.81606],[4.37912,50.81384],[4.38259,50.81585],[4.38324,50.8152],[4.38362,50.81448],[4.3839,50.81344],[4.38506,50.81179],[4.38529,50.81083],[4.38563,50.81013],[4.38666,50.80864],[4.38704,50.80773],[4.38735,50.80581],[4.38777,50.80507],[4.39046,50.80216],[4.39378,50.80075],[4.3969,50.80176],[4.39701,50.8019],[4.39638,50.80346],[4.39701,50.8048],[4.39704,50.80545],[4.39733,50.80662],[4.39726,50.80717],[4.39737,50.80823],[4.39723,50.80868],[4.39672,50.80911],[4.39553,50.80958],[4.39465,50.80982],[4.39415,50.81009],[4.39342,50.81117],[4.39228,50.81208],[4.39632,50.81303],[4.39804,50.81329]]]]}},{"type":"Feature","id":"21010","bbox":[4.293762,50.864545,4.340523,50.894119],"properties":{"nis":"21010","name":"Jette","nameNl":"Jette","nameFr":"Jette","nameDe":"Jette","province":"brussels","region":"brussels","areaKm2":5.17},"geometry":{"type":"Polygon","coordinates":[[[4.29821,50.8821],[4.30601,50.8814],[4.30944,50.88078],[4.31254,50.88007],[4.31452,50.87992],[4.31593,50.87996],[4.31966,50.88024],[4.31972,50.8799],[4.31934,50.87847],[4.3211,50.87773],[4.32073,50.87705],[4.32042,50.87519],[4.32205,50.87438],[4.32255,50.87394],[4.32337,50.87271],[4.32056,50.87217],[4.32405,50.86697],[4.32485,50.86712],[4.32522,50.86668],[4.32761,50.86747],[4.32804,50.86748],[4.32834,50.86718],[4.32962,50.86759],[4.3315,50.86557],[4.33237,50.86455],[4.34052,50.87136],[4.34023,50.8715],[4.33978,50.87312],[4.33881,50.87546],[4.33836,50.87639],[4.33948,50.87659],[4.33929,50.88176],[4.33782,50.88434],[4.33827,50.88455],[4.33833,50.88483],[4.33768,50.88489],[4.33704,50.88697],[4.33469,50.88679],[4.33382,50.88617],[4.3324,50.88559],[4.33229,50.88571],[4.33136,50.8854],[4.3302,50.88512],[4.32989,50.88532],[4.32748,50.88892],[4.32757,50.88912],[4.32994,50.89011],[4.3298,50.89055],[4.32608,50.89115],[4.32764,50.89336],[4.32683,50.89381],[4.32448,50.89407],[4.32352,50.89412],[4.32229,50.89402],[4.31776,50.89316],[4.3163,50.89299],[4.31422,50.89317],[4.31377,50.89331],[4.31159,50.89248],[4.30916,50.89165],[4.30743,50.89099],[4.30578,50.89095],[4.30409,50.89062],[4.30198,50.8904],[4.30116,50.89042],[4.30094,50.89056],[4.30057,50.89045],[4.29376,50.88904],[4.29391,50.88788],[4.29391,50.88716],[4.29461,50.88613],[4.29528,50.8856],[4.29657,50.88498],[4.29705,50.88504],[4.2979,50.88351],[4.29821,50.8821]]]}},{"type":"Feature","id":"21011","bbox":[4.306922,50.856777,4.337727,50.867586],"properties":{"nis":"21011","name":"Koekelberg","nameNl":"Koekelberg","nameFr":"Koekelberg","nameDe":"Koekelberg","province":"brussels","region":"brussels","areaKm2":1.18},"geometry":{"type":"Polygon","coordinates":[[[4.33237,50.86455],[4.3315,50.86557],[4.32962,50.86759],[4.32834,50.86718],[4.32804,50.86748],[4.32761,50.86747],[4.32522,50.86668],[4.32513,50.86664],[4.32614,50.86566],[4.32482,50.86509],[4.32308,50.86605],[4.32252,50.86619],[4.31977,50.86668],[4.31723,50.86707],[4.31602,50.86718],[4.31406,50.86714],[4.30919,50.86686],[4.30836,50.86621],[4.30733,50.86568],[4.30696,50.86491],[4.30704,50.86424],[4.30874,50.8645],[4.31043,50.86439],[4.3106,50.8647],[4.31223,50.86423],[4.31263,50.86389],[4.31612,50.86123],[4.32221,50.86253],[4.32263,50.86215],[4.32331,50.86202],[4.32683,50.86115],[4.32738,50.86061],[4.3269,50.86006],[4.32712,50.85993],[4.32611,50.85829],[4.32549,50.85695],[4.32687,50.85678],[4.32885,50.85679],[4.33039,50.85696],[4.33277,50.85711],[4.33251,50.85744],[4.3345,50.85835],[4.33504,50.85819],[4.33696,50.85897],[4.33773,50.85947],[4.3365,50.86019],[4.33618,50.86007],[4.33495,50.86109],[4.33482,50.86149],[4.33505,50.86192],[4.334,50.86222],[4.33418,50.86234],[4.33246,50.86434],[4.33237,50.86455]]]}},{"type":"Feature","id":"21012","bbox":[4.283113,50.843972,4.348395,50.871363],"properties":{"nis":"21012","name":"Molenbeek-Saint-Jean / Sint-Jans-Molenbeek","nameNl":"Sint-Jans-Molenbeek","nameFr":"Molenbeek-Saint-Jean","nameDe":"Molenbeek-Saint-Jean - Sint-Jans-Molenbeek","province":"brussels","region":"brussels","areaKm2":5.99},"geometry":{"type":"Polygon","coordinates":[[[4.33564,50.84815],[4.33547,50.84892],[4.33742,50.8485],[4.33852,50.85047],[4.34141,50.85354],[4.34665,50.85903],[4.34566,50.85956],[4.34711,50.86104],[4.34839,50.86285],[4.34562,50.86371],[4.34174,50.86496],[4.34169,50.86508],[4.34354,50.8674],[4.34361,50.86778],[4.3431,50.86842],[4.34359,50.86905],[4.34173,50.87083],[4.34052,50.87136],[4.33237,50.86455],[4.33246,50.86434],[4.33418,50.86234],[4.334,50.86222],[4.33505,50.86192],[4.33482,50.86149],[4.33495,50.86109],[4.33618,50.86007],[4.3365,50.86019],[4.33773,50.85947],[4.33696,50.85897],[4.33504,50.85819],[4.3345,50.85835],[4.33251,50.85744],[4.33277,50.85711],[4.33039,50.85696],[4.32885,50.85679],[4.32687,50.85678],[4.32549,50.85695],[4.32611,50.85829],[4.32712,50.85993],[4.3269,50.86006],[4.32738,50.86061],[4.32683,50.86115],[4.32331,50.86202],[4.32263,50.86215],[4.32221,50.86253],[4.31612,50.86123],[4.31263,50.86389],[4.31223,50.86423],[4.3106,50.8647],[4.31043,50.86439],[4.30874,50.8645],[4.30704,50.86424],[4.30592,50.86419],[4.30652,50.86226],[4.30648,50.86213],[4.30438,50.86168],[4.30448,50.86149],[4.30353,50.86127],[4.30402,50.86112],[4.30526,50.86032],[4.30467,50.86055],[4.30379,50.86037],[4.30359,50.86059],[4.30309,50.86057],[4.30217,50.86021],[4.30253,50.85966],[4.30337,50.85985],[4.3042,50.85857],[4.30397,50.85834],[4.30409,50.85803],[4.29943,50.85706],[4.29796,50.8565],[4.29668,50.85587],[4.29546,50.8554],[4.29359,50.85543],[4.29337,50.85592],[4.29017,50.85533],[4.28984,50.85587],[4.28672,50.85471],[4.28521,50.85457],[4.28439,50.85438],[4.2832,50.85376],[4.28332,50.85328],[4.28415,50.85285],[4.28607,50.85164],[4.28644,50.85128],[4.28724,50.85],[4.28755,50.84931],[4.28825,50.84827],[4.28718,50.84787],[4.28628,50.84776],[4.28575,50.84786],[4.2849,50.84838],[4.28421,50.84819],[4.2837,50.84775],[4.28325,50.84699],[4.2835,50.84698],[4.28464,50.84646],[4.28458,50.84571],[4.28429,50.8454],[4.28461,50.8453],[4.28623,50.84514],[4.28859,50.84543],[4.29109,50.8452],[4.2922,50.84519],[4.29303,50.8453],[4.29296,50.84629],[4.29228,50.84628],[4.29161,50.84713],[4.29045,50.84906],[4.29238,50.84899],[4.29243,50.84947],[4.2935,50.84944],[4.29381,50.84798],[4.29427,50.84734],[4.2946,50.84754],[4.29522,50.8476],[4.29681,50.84737],[4.29983,50.84738],[4.29987,50.84837],[4.29973,50.84919],[4.30048,50.84895],[4.30102,50.84853],[4.30261,50.84851],[4.30293,50.84815],[4.30398,50.84827],[4.30471,50.84858],[4.30546,50.84907],[4.30727,50.84979],[4.30804,50.84997],[4.30815,50.8498],[4.30963,50.8503],[4.31028,50.85032],[4.31248,50.84969],[4.31368,50.84893],[4.31597,50.84843],[4.31862,50.84758],[4.32308,50.84622],[4.32725,50.84499],[4.32813,50.84404],[4.32935,50.84453],[4.33003,50.84416],[4.33073,50.84397],[4.33073,50.84429],[4.33142,50.84514],[4.33193,50.84637],[4.33262,50.84718],[4.33372,50.84788],[4.33461,50.84807],[4.33564,50.84815]]]}},{"type":"Feature","id":"21013","bbox":[4.325901,50.820536,4.358548,50.840229],"properties":{"nis":"21013","name":"Saint-Gilles / Sint-Gillis","nameNl":"Sint-Gillis","nameFr":"Saint-Gilles","nameDe":"Saint-Gilles/Sint-Gillis","province":"brussels","region":"brussels","areaKm2":2.53},"geometry":{"type":"MultiPolygon","coordinates":[[[[4.35609,50.83577],[4.35596,50.83589],[4.3554,50.83566],[4.35631,50.83473],[4.35686,50.83497],[4.35609,50.83577]]],[[[4.35833,50.83063],[4.35791,50.83103],[4.35833,50.83188],[4.35767,50.83222],[4.3576,50.83266],[4.35693,50.83284],[4.35719,50.83365],[4.35517,50.83556],[4.35004,50.83341],[4.34867,50.83289],[4.34811,50.83279],[4.34586,50.83271],[4.34497,50.83261],[4.343,50.83297],[4.34286,50.83309],[4.3403,50.84016],[4.33995,50.84023],[4.3388,50.84013],[4.33813,50.83977],[4.33678,50.83931],[4.33605,50.83894],[4.33595,50.83821],[4.3348,50.83732],[4.3334,50.83665],[4.3327,50.83589],[4.33276,50.83543],[4.33224,50.83509],[4.33222,50.83433],[4.33094,50.8333],[4.33057,50.83236],[4.3303,50.83202],[4.32927,50.8314],[4.32698,50.831],[4.3259,50.83055],[4.32934,50.82982],[4.33471,50.82798],[4.33581,50.82694],[4.33713,50.82616],[4.33727,50.82621],[4.33929,50.82498],[4.33972,50.82461],[4.34121,50.82303],[4.34146,50.82264],[4.34455,50.82112],[4.3453,50.82159],[4.34801,50.82084],[4.35248,50.82057],[4.35361,50.82058],[4.35383,50.8215],[4.3539,50.82252],[4.35589,50.82387],[4.35723,50.8243],[4.35701,50.82445],[4.35815,50.82505],[4.35845,50.82494],[4.35829,50.8256],[4.35843,50.82595],[4.35855,50.82727],[4.357,50.82816],[4.3576,50.82861],[4.35714,50.82887],[4.35768,50.82928],[4.35844,50.83024],[4.35812,50.83037],[4.35833,50.83063]]]]}},{"type":"Feature","id":"21014","bbox":[4.355248,50.84712,4.384052,50.860314],"properties":{"nis":"21014","name":"Saint-Josse-ten-Noode / Sint-Joost-ten-Node","nameNl":"Sint-Joost-ten-Node","nameFr":"Saint-Josse-ten-Noode","nameDe":"Sint-Joost-ten-Node","province":"brussels","region":"brussels","areaKm2":1.16},"geometry":{"type":"Polygon","coordinates":[[[4.35719,50.86031],[4.35668,50.85935],[4.35658,50.8577],[4.35587,50.85704],[4.35525,50.85621],[4.36065,50.85472],[4.36541,50.85336],[4.36838,50.85255],[4.36972,50.84742],[4.36957,50.84712],[4.37322,50.84729],[4.37388,50.84791],[4.37526,50.84763],[4.37571,50.84847],[4.37737,50.84903],[4.37759,50.84876],[4.37898,50.84903],[4.37896,50.84989],[4.3796,50.85002],[4.38099,50.8506],[4.38405,50.85142],[4.38223,50.85182],[4.37256,50.85674],[4.37173,50.85698],[4.36969,50.85747],[4.36952,50.85718],[4.36794,50.85752],[4.36805,50.85772],[4.3665,50.85812],[4.35719,50.86031]]]}},{"type":"Feature","id":"21015","bbox":[4.357186,50.843409,4.413027,50.881063],"properties":{"nis":"21015","name":"Schaerbeek / Schaarbeek","nameNl":"Schaarbeek","nameFr":"Schaerbeek","nameDe":"Schaerbeek - Schaarbeek","province":"brussels","region":"brussels","areaKm2":7.87},"geometry":{"type":"Polygon","coordinates":[[[4.38405,50.85142],[4.38512,50.8517],[4.38578,50.85147],[4.38954,50.84922],[4.39113,50.8482],[4.393,50.84718],[4.39368,50.8466],[4.39511,50.84509],[4.39564,50.8443],[4.39603,50.84341],[4.39891,50.84467],[4.40005,50.84365],[4.40366,50.8455],[4.40512,50.84614],[4.40833,50.84778],[4.41084,50.84914],[4.40996,50.8507],[4.41105,50.85077],[4.41112,50.85114],[4.41211,50.85174],[4.41178,50.85204],[4.4107,50.85307],[4.41303,50.85407],[4.41246,50.85459],[4.4089,50.85767],[4.40769,50.85737],[4.40639,50.85857],[4.40472,50.8598],[4.40407,50.86002],[4.40424,50.86034],[4.40297,50.86121],[4.40004,50.8639],[4.39878,50.86534],[4.39689,50.86739],[4.39604,50.86862],[4.395,50.87126],[4.39407,50.87314],[4.39311,50.8748],[4.39273,50.8758],[4.39177,50.87716],[4.39054,50.87858],[4.39036,50.87866],[4.38894,50.88038],[4.38895,50.88058],[4.38839,50.88106],[4.38428,50.88014],[4.38307,50.87979],[4.38148,50.87899],[4.37951,50.87783],[4.3794,50.87791],[4.37483,50.8755],[4.3745,50.87527],[4.37251,50.87157],[4.37093,50.87149],[4.36911,50.87101],[4.36811,50.87053],[4.36691,50.86959],[4.36521,50.86948],[4.3649,50.8705],[4.36524,50.87089],[4.36459,50.87112],[4.36449,50.871],[4.36374,50.87126],[4.36312,50.87055],[4.36109,50.8688],[4.3588,50.86378],[4.35826,50.86253],[4.35719,50.86031],[4.3665,50.85812],[4.36805,50.85772],[4.36794,50.85752],[4.36952,50.85718],[4.36969,50.85747],[4.37173,50.85698],[4.37256,50.85674],[4.38223,50.85182],[4.38405,50.85142]]]}},{"type":"Feature","id":"21016","bbox":[4.311798,50.76368,4.412614,50.816937],"properties":{"nis":"21016","name":"Uccle / Ukkel","nameNl":"Ukkel","nameFr":"Uccle","nameDe":"Uccle/Ukkel","province":"brussels","region":"brussels","areaKm2":22.8},"geometry":{"type":"Polygon","coordinates":[[[4.32576,50.7799],[4.32674,50.77949],[4.32707,50.77905],[4.32786,50.77856],[4.32768,50.7784],[4.32845,50.77796],[4.32966,50.77752],[4.3305,50.77691],[4.33089,50.77643],[4.33073,50.7763],[4.33125,50.7755],[4.33496,50.7746],[4.33629,50.77435],[4.34077,50.7736],[4.34178,50.77439],[4.34401,50.77513],[4.34404,50.77539],[4.3468,50.77551],[4.34752,50.77529],[4.34779,50.77479],[4.34932,50.77446],[4.34976,50.77456],[4.3515,50.77406],[4.35236,50.77365],[4.353,50.77351],[4.35439,50.77361],[4.35622,50.77345],[4.3629,50.77234],[4.36251,50.77191],[4.36373,50.77137],[4.36427,50.77243],[4.36422,50.7729],[4.36316,50.77307],[4.3631,50.7733],[4.36912,50.77196],[4.3734,50.77103],[4.38105,50.76933],[4.38111,50.76859],[4.38179,50.76858],[4.38265,50.76874],[4.38269,50.76448],[4.38293,50.76368],[4.39646,50.76756],[4.40631,50.77047],[4.41098,50.77191],[4.41262,50.77232],[4.41129,50.7739],[4.41135,50.77392],[4.40955,50.77548],[4.40639,50.77858],[4.39983,50.78524],[4.39705,50.7882],[4.39687,50.78925],[4.40099,50.79048],[4.4025,50.79137],[4.40189,50.79156],[4.40225,50.79174],[4.40377,50.79211],[4.40388,50.79255],[4.40349,50.79292],[4.40331,50.79358],[4.40269,50.79363],[4.402,50.79342],[4.40153,50.79394],[4.4011,50.79406],[4.40081,50.79636],[4.38303,50.79872],[4.37538,50.79974],[4.37729,50.80001],[4.37799,50.80028],[4.37785,50.8011],[4.37679,50.80091],[4.37581,50.80099],[4.3756,50.80124],[4.37394,50.80196],[4.37323,50.80264],[4.37357,50.80269],[4.37336,50.80321],[4.37284,50.8031],[4.37241,50.80425],[4.37223,50.80552],[4.37175,50.80665],[4.37277,50.80671],[4.37298,50.80757],[4.37273,50.8078],[4.37296,50.80818],[4.37242,50.80848],[4.37118,50.80875],[4.37062,50.80911],[4.36975,50.80945],[4.36914,50.81055],[4.36784,50.8139],[4.36828,50.81399],[4.36812,50.81487],[4.36755,50.81594],[4.36814,50.81605],[4.36807,50.81622],[4.36729,50.81652],[4.36676,50.81694],[4.36651,50.8167],[4.36352,50.8158],[4.36261,50.81579],[4.36237,50.81634],[4.36179,50.81622],[4.36053,50.81667],[4.35947,50.8165],[4.35942,50.81665],[4.35778,50.81642],[4.35797,50.81576],[4.35732,50.81543],[4.35752,50.81469],[4.34792,50.81429],[4.34611,50.81421],[4.34406,50.81403],[4.34304,50.81429],[4.34291,50.81466],[4.34081,50.81511],[4.3407,50.81496],[4.33965,50.81506],[4.33938,50.81496],[4.33775,50.81518],[4.33732,50.81395],[4.33655,50.81374],[4.33587,50.81321],[4.33478,50.81297],[4.33508,50.81261],[4.33605,50.81179],[4.33731,50.8111],[4.33656,50.80954],[4.33562,50.80964],[4.33518,50.80954],[4.33553,50.80849],[4.33245,50.80795],[4.3321,50.80752],[4.33073,50.80629],[4.32928,50.80636],[4.32825,50.80666],[4.32792,50.80566],[4.32728,50.80568],[4.32498,50.80548],[4.32472,50.80452],[4.32432,50.8038],[4.3236,50.80313],[4.3217,50.80067],[4.3194,50.80016],[4.31881,50.79993],[4.31809,50.79983],[4.31715,50.79986],[4.31585,50.79922],[4.31496,50.79906],[4.31319,50.79853],[4.31183,50.79797],[4.3118,50.79751],[4.31295,50.7974],[4.31372,50.79711],[4.31428,50.79673],[4.31411,50.7964],[4.31493,50.79657],[4.31521,50.7964],[4.3164,50.79635],[4.31722,50.7952],[4.31763,50.79511],[4.31802,50.7942],[4.31792,50.79376],[4.31834,50.79329],[4.31828,50.79247],[4.31877,50.79215],[4.31818,50.79103],[4.31829,50.7906],[4.31866,50.79069],[4.31923,50.79011],[4.31916,50.78912],[4.31963,50.78884],[4.31964,50.78846],[4.31933,50.78837],[4.31952,50.78769],[4.31913,50.78764],[4.31936,50.78685],[4.31971,50.78683],[4.32049,50.78631],[4.32061,50.78566],[4.32123,50.78536],[4.32112,50.7848],[4.3216,50.78425],[4.32152,50.78387],[4.32187,50.78317],[4.32319,50.7824],[4.32515,50.78069],[4.32538,50.77997],[4.32576,50.7799]]]}},{"type":"Feature","id":"21017","bbox":[4.392276,50.772324,4.470273,50.815034],"properties":{"nis":"21017","name":"Watermael-Boitsfort / Watermaal-Bosvoorde","nameNl":"Watermaal-Bosvoorde","nameFr":"Watermael-Boitsfort","nameDe":"Watermael-Boitsfort/Watermaal-Bosvoorde","province":"brussels","region":"brussels","areaKm2":12.92},"geometry":{"type":"Polygon","coordinates":[[[4.40081,50.79636],[4.4011,50.79406],[4.40153,50.79394],[4.402,50.79342],[4.40269,50.79363],[4.40331,50.79358],[4.40349,50.79292],[4.40388,50.79255],[4.40377,50.79211],[4.40225,50.79174],[4.40189,50.79156],[4.4025,50.79137],[4.40099,50.79048],[4.39687,50.78925],[4.39705,50.7882],[4.39983,50.78524],[4.40639,50.77858],[4.40955,50.77548],[4.41135,50.77392],[4.41129,50.7739],[4.41262,50.77232],[4.4168,50.77337],[4.42531,50.7755],[4.43316,50.77813],[4.43459,50.77648],[4.45146,50.7826],[4.45167,50.7827],[4.45376,50.78359],[4.46321,50.78783],[4.46346,50.78792],[4.47027,50.78976],[4.46656,50.79046],[4.4624,50.7905],[4.46184,50.79055],[4.45532,50.79197],[4.45296,50.79586],[4.45114,50.79876],[4.45014,50.79851],[4.44899,50.79808],[4.44845,50.798],[4.44352,50.79756],[4.4321,50.80255],[4.42923,50.80389],[4.42915,50.80414],[4.42946,50.80477],[4.42832,50.80517],[4.42834,50.80603],[4.42886,50.80638],[4.42929,50.80793],[4.42848,50.8089],[4.42865,50.80983],[4.42847,50.81001],[4.42239,50.81099],[4.4213,50.81057],[4.41935,50.8106],[4.41812,50.812],[4.41806,50.81241],[4.41634,50.81227],[4.41485,50.81255],[4.41437,50.81322],[4.41294,50.81333],[4.41241,50.81327],[4.4098,50.81258],[4.40887,50.81245],[4.40636,50.81239],[4.40646,50.81308],[4.40629,50.81396],[4.40632,50.81502],[4.40362,50.81485],[4.4023,50.81453],[4.40094,50.81398],[4.39964,50.81395],[4.39804,50.81329],[4.39632,50.81303],[4.39228,50.81208],[4.39342,50.81117],[4.39415,50.81009],[4.39465,50.80982],[4.39553,50.80958],[4.39672,50.80911],[4.39723,50.80868],[4.39737,50.80823],[4.39726,50.80717],[4.39733,50.80662],[4.39704,50.80545],[4.39701,50.8048],[4.39638,50.80346],[4.39701,50.8019],[4.3969,50.80176],[4.39724,50.80121],[4.39771,50.8009],[4.39888,50.79986],[4.39986,50.79888],[4.40104,50.79747],[4.40091,50.79635],[4.40081,50.79636]]]}},{"type":"Feature","id":"21018","bbox":[4.400052,50.833782,4.461776,50.863036],"properties":{"nis":"21018","name":"Woluwe-Saint-Lambert / Sint-Lambrechts-Woluwe","nameNl":"Sint-Lambrechts-Woluwe","nameFr":"Woluwe-Saint-Lambert","nameDe":"Woluwe-Saint-Lambert/Sint-Lambrechts-Woluwe","province":"brussels","region":"brussels","areaKm2":7.27},"geometry":{"type":"Polygon","coordinates":[[[4.45786,50.85277],[4.45641,50.85282],[4.45336,50.85352],[4.45104,50.85349],[4.45025,50.85358],[4.44843,50.85421],[4.44811,50.85417],[4.44629,50.85512],[4.44596,50.85547],[4.44606,50.85602],[4.44633,50.85624],[4.44605,50.85688],[4.44536,50.85723],[4.44435,50.85748],[4.44501,50.85814],[4.43912,50.86045],[4.43737,50.85851],[4.42976,50.86121],[4.43102,50.86249],[4.42868,50.86304],[4.42663,50.86287],[4.42406,50.86013],[4.422,50.85702],[4.41584,50.85423],[4.41178,50.85204],[4.41211,50.85174],[4.41112,50.85114],[4.41105,50.85077],[4.40996,50.8507],[4.41084,50.84914],[4.40833,50.84778],[4.40512,50.84614],[4.40366,50.8455],[4.40005,50.84365],[4.40061,50.84311],[4.40111,50.8423],[4.40147,50.84134],[4.40109,50.8406],[4.40253,50.84031],[4.40435,50.83963],[4.40556,50.83884],[4.40596,50.83908],[4.40756,50.83887],[4.4083,50.83898],[4.40889,50.83861],[4.41082,50.83813],[4.41176,50.83831],[4.41536,50.83835],[4.41841,50.83854],[4.42105,50.83898],[4.4226,50.83914],[4.42644,50.83939],[4.43161,50.83932],[4.43181,50.84005],[4.43295,50.83995],[4.434,50.83964],[4.43403,50.83776],[4.43552,50.83758],[4.43474,50.83511],[4.43474,50.83478],[4.43579,50.83454],[4.43618,50.83474],[4.43687,50.83442],[4.43925,50.83378],[4.43986,50.83435],[4.43991,50.83477],[4.43974,50.83568],[4.43851,50.83583],[4.43817,50.83598],[4.43813,50.8363],[4.43847,50.83702],[4.43893,50.83698],[4.44069,50.83766],[4.44147,50.83814],[4.44222,50.83833],[4.44379,50.8384],[4.44724,50.83896],[4.44891,50.8393],[4.4516,50.83969],[4.45479,50.83989],[4.45344,50.84072],[4.45249,50.84138],[4.45176,50.84205],[4.44962,50.84161],[4.44813,50.84289],[4.44966,50.84332],[4.44963,50.84345],[4.45064,50.84383],[4.45174,50.84384],[4.45415,50.84412],[4.45522,50.84408],[4.45575,50.84393],[4.45591,50.84418],[4.45708,50.84411],[4.45723,50.84508],[4.45753,50.84525],[4.4584,50.84527],[4.45896,50.84547],[4.45964,50.84544],[4.45737,50.8478],[4.46178,50.84879],[4.46122,50.85012],[4.46097,50.85097],[4.46128,50.85102],[4.46117,50.8519],[4.45963,50.85231],[4.45868,50.85263],[4.45786,50.85277]]]}},{"type":"Feature","id":"21019","bbox":[4.404362,50.818423,4.476725,50.848944],"properties":{"nis":"21019","name":"Woluwe-Saint-Pierre / Sint-Pieters-Woluwe","nameNl":"Sint-Pieters-Woluwe","nameFr":"Woluwe-Saint-Pierre","nameDe":"Woluwe-Saint-Pierre/Sint-Pieters-Woluwe","province":"brussels","region":"brussels","areaKm2":8.91},"geometry":{"type":"Polygon","coordinates":[[[4.40756,50.83887],[4.40612,50.83839],[4.40595,50.83806],[4.4051,50.83762],[4.40716,50.83591],[4.40931,50.83438],[4.40985,50.83373],[4.40973,50.83245],[4.4098,50.8319],[4.41032,50.83101],[4.41082,50.83059],[4.41136,50.83044],[4.41219,50.83046],[4.40436,50.82704],[4.40589,50.82646],[4.40754,50.82552],[4.40849,50.82486],[4.41139,50.82299],[4.41171,50.82256],[4.41313,50.82218],[4.41457,50.82294],[4.41778,50.82162],[4.4186,50.82171],[4.41943,50.82204],[4.4209,50.82302],[4.42178,50.82329],[4.42263,50.82377],[4.42401,50.82425],[4.42518,50.82492],[4.42717,50.8259],[4.42814,50.82625],[4.42835,50.82586],[4.43029,50.82622],[4.43067,50.82611],[4.43125,50.82557],[4.43224,50.82502],[4.43226,50.82512],[4.43363,50.82508],[4.44064,50.82057],[4.44171,50.82125],[4.44266,50.82237],[4.44303,50.82248],[4.44632,50.82266],[4.44686,50.82263],[4.44935,50.82198],[4.45032,50.82127],[4.45276,50.82038],[4.45336,50.81989],[4.45366,50.81945],[4.45465,50.81842],[4.46703,50.81953],[4.47673,50.82041],[4.46574,50.83553],[4.46817,50.83739],[4.46781,50.83867],[4.46701,50.83975],[4.46681,50.84015],[4.46725,50.84339],[4.46707,50.84463],[4.4652,50.84427],[4.46399,50.84639],[4.46364,50.84729],[4.46303,50.84831],[4.46248,50.84894],[4.46178,50.84879],[4.45737,50.8478],[4.45964,50.84544],[4.45896,50.84547],[4.4584,50.84527],[4.45753,50.84525],[4.45723,50.84508],[4.45708,50.84411],[4.45591,50.84418],[4.45575,50.84393],[4.45522,50.84408],[4.45415,50.84412],[4.45174,50.84384],[4.45064,50.84383],[4.44963,50.84345],[4.44966,50.84332],[4.44813,50.84289],[4.44962,50.84161],[4.45176,50.84205],[4.45249,50.84138],[4.45344,50.84072],[4.45479,50.83989],[4.4516,50.83969],[4.44891,50.8393],[4.44724,50.83896],[4.44379,50.8384],[4.44222,50.83833],[4.44147,50.83814],[4.44069,50.83766],[4.43893,50.83698],[4.43847,50.83702],[4.43813,50.8363],[4.43817,50.83598],[4.43851,50.83583],[4.43974,50.83568],[4.43991,50.83477],[4.43986,50.83435],[4.43925,50.83378],[4.43687,50.83442],[4.43618,50.83474],[4.43579,50.83454],[4.43474,50.83478],[4.43474,50.83511],[4.43552,50.83758],[4.43403,50.83776],[4.434,50.83964],[4.43295,50.83995],[4.43181,50.84005],[4.43161,50.83932],[4.42644,50.83939],[4.4226,50.83914],[4.42105,50.83898],[4.41841,50.83854],[4.41536,50.83835],[4.41176,50.83831],[4.41082,50.83813],[4.40889,50.83861],[4.4083,50.83898],[4.40756,50.83887]]]}}]}